WORLDVIEW-1 (WV-1)      
1 32060U 07041A   26196.18943323  .00003207  00000+0  13315-3 0  9997
2 32060  97.3905 315.5400 0001525 206.4263 153.6897 15.24558383 47149
WORLDVIEW-2 (WV-2)      
1 35946U 09055A   26196.20690544  .00000038  00000+0  26868-4 0  9994
2 35946  98.4756 269.2750 0005313 129.8113 230.3542 14.37906907879678
WORLDVIEW-3 (WV-3)      
1 40115U 14048A   26196.19716257  .00000394  00000+0  52415-4 0  9996
2 40115  97.8556 270.6424 0001298 156.3329 203.7945 14.85064223646064
