{"fetched_at":"2026-07-15T17:47:39.941Z","source":"https://celestrak.org/NORAD/elements/gp.php?NAME=WORLDVIEW&FORMAT=JSON","constellation":"worldview","records":[{"OBJECT_NAME":"WORLDVIEW-1 (WV-1)","OBJECT_ID":"2007-041A","EPOCH":"2026-07-15T04:32:47.031072","CLASSIFICATION_TYPE":"U","MEAN_MOTION":15.24558383,"ECCENTRICITY":0.0001525,"INCLINATION":97.3905,"RA_OF_ASC_NODE":315.54,"ARG_OF_PERICENTER":206.4263,"MEAN_ANOMALY":153.6897,"EPHEMERIS_TYPE":0,"NORAD_CAT_ID":32060,"ELEMENT_SET_NO":999,"REV_AT_EPOCH":4714,"BSTAR":0.00013315,"MEAN_MOTION_DOT":0.00003207,"MEAN_MOTION_DDOT":0},{"OBJECT_NAME":"WORLDVIEW-2 (WV-2)","OBJECT_ID":"2009-055A","EPOCH":"2026-07-15T04:57:56.630016","CLASSIFICATION_TYPE":"U","MEAN_MOTION":14.37906907,"ECCENTRICITY":0.0005313,"INCLINATION":98.4756,"RA_OF_ASC_NODE":269.275,"ARG_OF_PERICENTER":129.8113,"MEAN_ANOMALY":230.3542,"EPHEMERIS_TYPE":0,"NORAD_CAT_ID":35946,"ELEMENT_SET_NO":999,"REV_AT_EPOCH":87967,"BSTAR":0.000026868,"MEAN_MOTION_DOT":3.8e-7,"MEAN_MOTION_DDOT":0},{"OBJECT_NAME":"WORLDVIEW-3 (WV-3)","OBJECT_ID":"2014-048A","EPOCH":"2026-07-15T04:43:54.846048","CLASSIFICATION_TYPE":"U","MEAN_MOTION":14.85064223,"ECCENTRICITY":0.0001298,"INCLINATION":97.8556,"RA_OF_ASC_NODE":270.6424,"ARG_OF_PERICENTER":156.3329,"MEAN_ANOMALY":203.7945,"EPHEMERIS_TYPE":0,"NORAD_CAT_ID":40115,"ELEMENT_SET_NO":999,"REV_AT_EPOCH":64606,"BSTAR":0.000052415,"MEAN_MOTION_DOT":0.00000394,"MEAN_MOTION_DDOT":0}]}
